XRISM                   
1 57800U 23137A   26089.83682370  .00007737  00000+0  43674-3 0  9998
2 57800  31.0017 146.8569 0007933 251.8412 108.1362 15.11749390140992
ACS3                    
1 59588U 24077B   26090.09156330  .00022980  00000+0  18026-1 0  9997
2 59588  97.1961  26.3932 0072987  27.9356 332.5697 13.90598876 97175
SZ-21 MODULE            
1 66515U 25246C   26090.00956182  .00051196  00000+0  40916-3 0  9994
2 66515  41.4738  71.9551 0002208 216.3833 143.6860 15.70237723 21422
