CCSDS_OMM_VERS = 2.0
CREATION_DATE  = 
ORIGINATOR     = 

OBJECT_NAME    = XRISM
OBJECT_ID      = 2023-137A
CENTER_NAME    = EARTH
REF_FRAME      = TEME
TIME_SYSTEM    = UTC
MEAN_ELEMENT_THEORY = SGP/SGP4

EPOCH          = 2026-03-30T20:05:01.567680
MEAN_MOTION    = 15.11749390
ECCENTRICITY   = .00079331
INCLINATION    = 31.0017
RA_OF_ASC_NODE = 146.8569
ARG_OF_PERICENTER = 251.8412
MEAN_ANOMALY   = 108.1362

EPHEMERIS_TYPE = 0
CLASSIFICATION_TYPE = U
NORAD_CAT_ID   = 57800
ELEMENT_SET_NO = 999
REV_AT_EPOCH   = 14099
BSTAR          = .43674076E-3
MEAN_MOTION_DOT = .7737E-4
MEAN_MOTION_DDOT = 0

CCSDS_OMM_VERS = 2.0
CREATION_DATE  = 
ORIGINATOR     = 

OBJECT_NAME    = ACS3
OBJECT_ID      = 2024-077B
CENTER_NAME    = EARTH
REF_FRAME      = TEME
TIME_SYSTEM    = UTC
MEAN_ELEMENT_THEORY = SGP/SGP4

EPOCH          = 2026-03-31T02:11:51.069120
MEAN_MOTION    = 13.90598876
ECCENTRICITY   = .0072987
INCLINATION    = 97.1961
RA_OF_ASC_NODE = 26.3932
ARG_OF_PERICENTER = 27.9356
MEAN_ANOMALY   = 332.5697

EPHEMERIS_TYPE = 0
CLASSIFICATION_TYPE = U
NORAD_CAT_ID   = 59588
ELEMENT_SET_NO = 999
REV_AT_EPOCH   = 9717
BSTAR          = .18026E-1
MEAN_MOTION_DOT = .2298E-3
MEAN_MOTION_DDOT = 0

CCSDS_OMM_VERS = 2.0
CREATION_DATE  = 
ORIGINATOR     = 

OBJECT_NAME    = SZ-21 MODULE
OBJECT_ID      = 2025-246C
CENTER_NAME    = EARTH
REF_FRAME      = TEME
TIME_SYSTEM    = UTC
MEAN_ELEMENT_THEORY = SGP/SGP4

EPOCH          = 2026-03-31T00:13:46.141248
MEAN_MOTION    = 15.70237723
ECCENTRICITY   = .0002208
INCLINATION    = 41.4738
RA_OF_ASC_NODE = 71.9551
ARG_OF_PERICENTER = 216.3833
MEAN_ANOMALY   = 143.6860

EPHEMERIS_TYPE = 0
CLASSIFICATION_TYPE = U
NORAD_CAT_ID   = 66515
ELEMENT_SET_NO = 999
REV_AT_EPOCH   = 2142
BSTAR          = .40916E-3
MEAN_MOTION_DOT = .51196E-3
MEAN_MOTION_DDOT = 0

